[{"OBJECT_NAME":"SUPERVIEW NEO-1 01","OBJECT_ID":"2022-043A","EPOCH":"2026-03-09T22:37:01.879104","MEAN_MOTION":15.15546982,"ECCENTRICITY":3.46e-5,"INCLINATION":97.3476,"RA_OF_ASC_NODE":144.9365,"ARG_OF_PERICENTER":232.358,"MEAN_ANOMALY":127.7621,"EPHEMERIS_TYPE":0,"CLASSIFICATION_TYPE":"U","NORAD_CAT_ID":52320,"ELEMENT_SET_NO":999,"REV_AT_EPOCH":21452,"BSTAR":0.00038664053,"MEAN_MOTION_DOT":7.269e-5,"MEAN_MOTION_DDOT":0},{"OBJECT_NAME":"XIWANG-5 02","OBJECT_ID":"2025-296A","EPOCH":"2026-03-09T21:42:05.145408","MEAN_MOTION":15.14679874,"ECCENTRICITY":0.00016159,"INCLINATION":41.3524,"RA_OF_ASC_NODE":326.5092,"ARG_OF_PERICENTER":203.554,"MEAN_ANOMALY":156.5206,"EPHEMERIS_TYPE":0,"CLASSIFICATION_TYPE":"U","NORAD_CAT_ID":67069,"ELEMENT_SET_NO":999,"REV_AT_EPOCH":1317,"BSTAR":0.00063449383,"MEAN_MOTION_DOT":0.00011786,"MEAN_MOTION_DDOT":0}]
